COSMOS 2361             
1 25590U 98076A   24152.78783177  .00000076  00000+0  65910-4 0  9990
2 25590  82.9362  38.1038 0032128  24.9908  41.0707 13.73118756274266
COSMOS 2378             
1 26818U 01023A   24153.23290912  .00000060  00000+0  48417-4 0  9997
2 26818  82.9287  54.4800 0032278 327.1461 144.8791 13.74049688152462
COSMOS 2389             
1 27436U 02026A   24152.94882247  .00000083  00000+0  70482-4 0  9995
2 27436  82.9516   1.2901 0046319 180.4561 294.4818 13.75064031104557
COSMOS 2398             
1 27818U 03023A   24153.56968709  .00000092  00000+0  83756-4 0  9992
2 27818  82.9473 324.7363 0030393 224.1968 200.5832 13.72295875 51453
COSMOS 2407             
1 28380U 04028A   24152.88052681  .00000091  00000+0  77550-4 0  9994
2 28380  82.9604 267.4696 0039363 177.7323 305.1175 13.76211800997215
COSMOS 2414             
1 28521U 05002A   24152.78440649  .00000089  00000+0  61908-4 0  9995
2 28521  82.9506 248.1221 0038936 298.6287  61.0962 13.87775398980314
COSMOS 2429             
1 32052U 07038A   24152.73913420  .00000070  00000+0  57134-4 0  9993
2 32052  82.9825  36.0098 0038836 157.9972 202.2862 13.75053952839060
COSMOS 2454             
1 35635U 09039A   24153.31541281  .00000080  00000+0  52066-4 0  9993
2 35635  82.9575 232.7400 0018126 230.6444 194.5408 13.89804028753985
COSMOS 2463             
1 36519U 10017A   24153.24038199  .00000074  00000+0  65076-4 0  9992
2 36519  82.9611  77.7701 0037202  41.5074  68.5794 13.71560298705763
